IRIDIUM 136             
1 42962U 17061H   23275.00572746  .00000171  00000+0  54142-4 0  9996
2 42962  86.3923  78.6423 0002315  87.1365 273.0096 14.34217778313050
